{
  "type": "FeatureCollection",
  "features": [
    {
      "type": "Feature",
      "properties": {
        "norad_id": 31307,
        "name": "GALAXY 17 (G-17)",
        "group": "intelsat",
        "lat": 2.506834531429949,
        "lon": 179.58281371605332,
        "alt_km": 35779.923728158865,
        "timestamp": "2025-12-22T11:33:20.096822+00:00",
        "meta_object_name": "GALAXY 17 (G-17)",
        "meta_object_id": "2007-016B",
        "meta_epoch": "2025-12-22T02:29:24.457920",
        "meta_mean_motion": 1.00269968,
        "meta_eccentricity": 0.0005337,
        "meta_inclination": 2.522,
        "meta_ra_of_asc_node": 82.1798,
        "meta_arg_of_pericenter": 170.8561,
        "meta_mean_anomaly": 150.2505,
        "meta_ephemeris_type": 0,
        "meta_classification_type": "U",
        "meta_norad_cat_id": 31307,
        "meta_element_set_no": 999,
        "meta_rev_at_epoch": 6802,
        "meta_bstar": 0,
        "meta_mean_motion_dot": -1.86e-06,
        "meta_mean_motion_ddot": 0,
        "tle_line1": "1 31307U 07016B   25356.10375530 -.00000186  00000+0  00000+0 0  9997",
        "tle_line2": "2 31307   2.5220  82.1798 0005337 170.8561 150.2505  1.00269968 68023"
      },
      "geometry": {
        "type": "Point",
        "coordinates": [
          179.58281371605332,
          2.506834531429949
        ]
      }
    },
    {
      "type": "Feature",
      "properties": {
        "norad_id": 31862,
        "name": "DIRECTV 10",
        "group": "intelsat",
        "lat": 0.004691760080461538,
        "lon": 161.8131047359639,
        "alt_km": 35785.337536651656,
        "timestamp": "2025-12-22T11:33:20.096833+00:00",
        "meta_object_name": "DIRECTV 10",
        "meta_object_id": "2007-032A",
        "meta_epoch": "2025-12-21T16:08:00.885408",
        "meta_mean_motion": 1.00272363,
        "meta_eccentricity": 2.03e-05,
        "meta_inclination": 0.0084,
        "meta_ra_of_asc_node": 101.8858,
        "meta_arg_of_pericenter": 105.8192,
        "meta_mean_anomaly": 21.9876,
        "meta_ephemeris_type": 0,
        "meta_classification_type": "U",
        "meta_norad_cat_id": 31862,
        "meta_element_set_no": 999,
        "meta_rev_at_epoch": 4381,
        "meta_bstar": 0,
        "meta_mean_motion_dot": -8.1e-07,
        "meta_mean_motion_ddot": 0,
        "tle_line1": "1 31862U 07032A   25355.67223247 -.00000081  00000+0  00000+0 0  9993",
        "tle_line2": "2 31862   0.0084 101.8858 0000203 105.8192  21.9876  1.00272363 43819"
      },
      "geometry": {
        "type": "Point",
        "coordinates": [
          161.8131047359639,
          0.004691760080461538
        ]
      }
    },
    {
      "type": "Feature",
      "properties": {
        "norad_id": 32253,
        "name": "INTELSAT 11 (IS-11)",
        "group": "intelsat",
        "lat": 0.3799351149103336,
        "lon": 87.43270392491372,
        "alt_km": 36166.14808752784,
        "timestamp": "2025-12-22T11:33:20.096845+00:00",
        "meta_object_name": "INTELSAT 11 (IS-11)",
        "meta_object_id": "2007-044B",
        "meta_epoch": "2025-12-22T02:03:34.434144",
        "meta_mean_motion": 0.9905273,
        "meta_eccentricity": 0.0008541,
        "meta_inclination": 3.103,
        "meta_ra_of_asc_node": 80.8735,
        "meta_arg_of_pericenter": 169.6132,
        "meta_mean_anomaly": 55.8954,
        "meta_ephemeris_type": 0,
        "meta_classification_type": "U",
        "meta_norad_cat_id": 32253,
        "meta_element_set_no": 999,
        "meta_rev_at_epoch": 6669,
        "meta_bstar": 0,
        "meta_mean_motion_dot": -1.07e-06,
        "meta_mean_motion_ddot": 0,
        "tle_line1": "1 32253U 07044B   25356.08581521 -.00000107  00000+0  00000+0 0  9998",
        "tle_line2": "2 32253   3.1030  80.8735 0008541 169.6132  55.8954  0.99052730 66699"
      },
      "geometry": {
        "type": "Point",
        "coordinates": [
          87.43270392491372,
          0.3799351149103336
        ]
      }
    },
    {
      "type": "Feature",
      "properties": {
        "norad_id": 32388,
        "name": "HORIZONS-2",
        "group": "intelsat",
        "lat": 2.040873432960751,
        "lon": -169.21173254816145,
        "alt_km": 35785.02909295922,
        "timestamp": "2025-12-22T11:33:20.096856+00:00",
        "meta_object_name": "HORIZONS-2",
        "meta_object_id": "2007-063B",
        "meta_epoch": "2025-12-22T02:32:31.659072",
        "meta_mean_motion": 1.00271024,
        "meta_eccentricity": 0.0004624,
        "meta_inclination": 2.1445,
        "meta_ra_of_asc_node": 82.8602,
        "meta_arg_of_pericenter": 194.9502,
        "meta_mean_anomaly": 137.4522,
        "meta_ephemeris_type": 0,
        "meta_classification_type": "U",
        "meta_norad_cat_id": 32388,
        "meta_element_set_no": 999,
        "meta_rev_at_epoch": 6603,
        "meta_bstar": 0,
        "meta_mean_motion_dot": -2.33e-06,
        "meta_mean_motion_ddot": 0,
        "tle_line1": "1 32388U 07063B   25356.10592198 -.00000233  00000+0  00000+0 0  9993",
        "tle_line2": "2 32388   2.1445  82.8602 0004624 194.9502 137.4522  1.00271024 66030"
      },
      "geometry": {
        "type": "Point",
        "coordinates": [
          -169.21173254816145,
          2.040873432960751
        ]
      }
    },
    {
      "type": "Feature",
      "properties": {
        "norad_id": 32729,
        "name": "DIRECTV 11",
        "group": "intelsat",
        "lat": -0.006399580552030852,
        "lon": 165.40594038294861,
        "alt_km": 35783.746129534215,
        "timestamp": "2025-12-22T11:33:20.096868+00:00",
        "meta_object_name": "DIRECTV 11",
        "meta_object_id": "2008-013A",
        "meta_epoch": "2025-12-21T16:09:00.789120",
        "meta_mean_motion": 1.00267418,
        "meta_eccentricity": 8.57e-05,
        "meta_inclination": 0.0458,
        "meta_ra_of_asc_node": 200.3144,
        "meta_arg_of_pericenter": 330.5483,
        "meta_mean_anomaly": 62.6867,
        "meta_ephemeris_type": 0,
        "meta_classification_type": "U",
        "meta_norad_cat_id": 32729,
        "meta_element_set_no": 999,
        "meta_rev_at_epoch": 4381,
        "meta_bstar": 0,
        "meta_mean_motion_dot": -1.03e-06,
        "meta_mean_motion_ddot": 0,
        "tle_line1": "1 32729U 08013A   25355.67292580 -.00000103  00000+0  00000+0 0  9997",
        "tle_line2": "2 32729   0.0458 200.3144 0000857 330.5483  62.6867  1.00267418 43812"
      },
      "geometry": {
        "type": "Point",
        "coordinates": [
          165.40594038294861,
          -0.006399580552030852
        ]
      }
    },
    {
      "type": "Feature",
      "properties": {
        "norad_id": 32951,
        "name": "GALAXY 18 (G-18)",
        "group": "intelsat",
        "lat": 0.0029375775462627454,
        "lon": 141.5779684081681,
        "alt_km": 35794.477754867046,
        "timestamp": "2025-12-22T11:33:20.096879+00:00",
        "meta_object_name": "GALAXY 18 (G-18)",
        "meta_object_id": "2008-024A",
        "meta_epoch": "2025-12-22T03:55:52.854816",
        "meta_mean_motion": 1.00271804,
        "meta_eccentricity": 0.0002875,
        "meta_inclination": 0.0195,
        "meta_ra_of_asc_node": 291.1281,
        "meta_arg_of_pericenter": 344.1901,
        "meta_mean_anomaly": 111.6144,
        "meta_ephemeris_type": 0,
        "meta_classification_type": "U",
        "meta_norad_cat_id": 32951,
        "meta_element_set_no": 999,
        "meta_rev_at_epoch": 4407,
        "meta_bstar": 0,
        "meta_mean_motion_dot": 4.7e-07,
        "meta_mean_motion_ddot": 0,
        "tle_line1": "1 32951U 08024A   25356.16380619  .00000047  00000+0  00000+0 0  9998",
        "tle_line2": "2 32951   0.0195 291.1281 0002875 344.1901 111.6144  1.00271804 44071"
      },
      "geometry": {
        "type": "Point",
        "coordinates": [
          141.5779684081681,
          0.0029375775462627454
        ]
      }
    },
    {
      "type": "Feature",
      "properties": {
        "norad_id": 33153,
        "name": "INTELSAT 25 (IS-25)",
        "group": "intelsat",
        "lat": 1.0898280540479013,
        "lon": -126.90179966028316,
        "alt_km": 35769.06698672333,
        "timestamp": "2025-12-22T11:33:20.096891+00:00",
        "meta_object_name": "INTELSAT 25 (IS-25)",
        "meta_object_id": "2008-034A",
        "meta_epoch": "2025-12-21T18:11:05.025984",
        "meta_mean_motion": 1.00273075,
        "meta_eccentricity": 0.0004784,
        "meta_inclination": 2.2495,
        "meta_ra_of_asc_node": 82.5539,
        "meta_arg_of_pericenter": 185.6657,
        "meta_mean_anomaly": 63.6158,
        "meta_ephemeris_type": 0,
        "meta_classification_type": "U",
        "meta_norad_cat_id": 33153,
        "meta_element_set_no": 999,
        "meta_rev_at_epoch": 6391,
        "meta_bstar": 0,
        "meta_mean_motion_dot": -2.03e-06,
        "meta_mean_motion_ddot": 0,
        "tle_line1": "1 33153U 08034A   25355.75769706 -.00000203  00000+0  00000+0 0  9991",
        "tle_line2": "2 33153   2.2495  82.5539 0004784 185.6657  63.6158  1.00273075 63915"
      },
      "geometry": {
        "type": "Point",
        "coordinates": [
          -126.90179966028316,
          1.0898280540479013
        ]
      }
    }
  ]
}